{
  "norad_id": 59598,
  "name": "GSAT0225 (GALILEO 29)",
  "history": [
    {
      "epoch": "2026-03-28T01:49:00.365952",
      "apogee_km": 23230.231393050868,
      "perigee_km": 23214.00808433752,
      "latitude_deg": 34.21797617075956,
      "longitude_deg": 147.06707327999175,
      "semi_major_axis_km": 29600.256738694192,
      "eccentricity": 0.00027404,
      "inclination_deg": 55.0678,
      "raan_deg": 103.3445,
      "arg_perigee_deg": 270.8462,
      "mean_anomaly_deg": 214.737,
      "mean_motion_rev_day": 1.70474547
    }
  ]
}